SL-14 R/B               
1 16792U 86046B   26037.68903284  .00000621  00000+0  68769-4 0  9995
2 16792  82.4818 109.4773 0022374 333.9709  26.0380 14.85560379121800
SL-14 R/B               
1 16882U 86055B   26037.83111985  .00000769  00000+0  85690-4 0  9996
2 16882  82.5232 155.6688 0020364  75.6163  43.1775 14.85609873114780
AJISAI (EGS)            
1 16908U 86061A   26037.96375094 -.00000101  00000+0 -27435-4 0  9994
2 16908  50.0069 187.8294 0011238 207.8829 247.5313 12.44515296464172
COSMOS 1812             
1 17295U 87003A   26037.98271150  .00294644  31944-4  80110-3 0  9990
2 17295  82.4779 230.4161 0000976 326.3921  33.7292 15.94124203139558
SL-14 R/B               
1 17567U 87024B   26037.66640867  .00000650  00000+0  71296-4 0  9997
2 17567  82.5294 121.9207 0018368   8.4394 351.7127 14.86102256 83523
COSMOS 1833             
1 17589U 87027A   26037.42973090  .00000073  00000+0  64882-4 0  9997
2 17589  70.9210  31.7158 0024868 256.3065 103.5287 14.13055988  5905
SL-16 R/B               
1 17590U 87027B   26037.98801176 -.00000136  00000+0 -43911-4 0  9997
2 17590  71.0050 341.1890 0005193 195.7618 164.3345 14.17163757 10995
SL-14 R/B               
1 17912U 87038B   26037.84748418  .00000757  00000+0  85049-4 0  9996
2 17912  82.5043 325.8548 0017686 266.6831  93.2362 14.85338706 74651
COSMOS 1844             
1 17973U 87041A   26037.63939715  .00000361  00000+0  21227-3 0  9994
2 17973  70.8981  99.6724 0028823  67.8471 292.5705 14.14538805999191
SL-14 R/B               
1 18153U 87055B   26037.96449298  .00000745  00000+0  83003-4 0  9995
2 18153  82.4994  17.9850 0022151 113.3823 246.9726 14.85591222 65374
COSMOS 1867             
1 18187U 87060A   26037.00351258 -.00000018  00000+0  30771-4 0  9999
2 18187  65.0107  35.4392 0014084 276.2768  83.6712 14.31497768 15404
SL-14 R/B               
1 18749U 88001B   26037.95768770  .00000652  00000+0  72629-4 0  9995
2 18749  82.5105 224.2664 0017637 344.7932  15.2751 14.85491161 37465
