CCSDS_OMM_VERS = 2.0
CREATION_DATE  = 
ORIGINATOR     = 

OBJECT_NAME    = SL-14 R/B
OBJECT_ID      = 1986-046B
CENTER_NAME    = EARTH
REF_FRAME      = TEME
TIME_SYSTEM    = UTC
MEAN_ELEMENT_THEORY = SGP/SGP4

EPOCH          = 2026-02-06T16:32:12.437376
MEAN_MOTION    = 14.85560379
ECCENTRICITY   = .00223741
INCLINATION    = 82.4818
RA_OF_ASC_NODE = 109.4773
ARG_OF_PERICENTER = 333.9709
MEAN_ANOMALY   = 26.0380

EPHEMERIS_TYPE = 0
CLASSIFICATION_TYPE = U
NORAD_CAT_ID   = 16792
ELEMENT_SET_NO = 999
REV_AT_EPOCH   = 12180
BSTAR          = .68768808E-4
MEAN_MOTION_DOT = .621E-5
MEAN_MOTION_DDOT = 0

CCSDS_OMM_VERS = 2.0
CREATION_DATE  = 
ORIGINATOR     = 

OBJECT_NAME    = SL-14 R/B
OBJECT_ID      = 1986-055B
CENTER_NAME    = EARTH
REF_FRAME      = TEME
TIME_SYSTEM    = UTC
MEAN_ELEMENT_THEORY = SGP/SGP4

EPOCH          = 2026-02-06T19:56:48.755040
MEAN_MOTION    = 14.85609873
ECCENTRICITY   = .00203648
INCLINATION    = 82.5232
RA_OF_ASC_NODE = 155.6688
ARG_OF_PERICENTER = 75.6163
MEAN_ANOMALY   = 43.1775

EPHEMERIS_TYPE = 0
CLASSIFICATION_TYPE = U
NORAD_CAT_ID   = 16882
ELEMENT_SET_NO = 999
REV_AT_EPOCH   = 11478
BSTAR          = .85689792E-4
MEAN_MOTION_DOT = .769E-5
MEAN_MOTION_DDOT = 0

CCSDS_OMM_VERS = 2.0
CREATION_DATE  = 
ORIGINATOR     = 

OBJECT_NAME    = AJISAI (EGS)
OBJECT_ID      = 1986-061A
CENTER_NAME    = EARTH
REF_FRAME      = TEME
TIME_SYSTEM    = UTC
MEAN_ELEMENT_THEORY = SGP/SGP4

EPOCH          = 2026-02-06T23:07:48.081216
MEAN_MOTION    = 12.44515296
ECCENTRICITY   = .00112388
INCLINATION    = 50.0069
RA_OF_ASC_NODE = 187.8294
ARG_OF_PERICENTER = 207.8829
MEAN_ANOMALY   = 247.5313

EPHEMERIS_TYPE = 0
CLASSIFICATION_TYPE = U
NORAD_CAT_ID   = 16908
ELEMENT_SET_NO = 999
REV_AT_EPOCH   = 46417
BSTAR          = -.27435001E-4
MEAN_MOTION_DOT = -.101E-5
MEAN_MOTION_DDOT = 0

CCSDS_OMM_VERS = 2.0
CREATION_DATE  = 
ORIGINATOR     = 

OBJECT_NAME    = COSMOS 1812
OBJECT_ID      = 1987-003A
CENTER_NAME    = EARTH
REF_FRAME      = TEME
TIME_SYSTEM    = UTC
MEAN_ELEMENT_THEORY = SGP/SGP4

EPOCH          = 2026-02-06T23:35:06.273600
MEAN_MOTION    = 15.94124203
ECCENTRICITY   = .00009768
INCLINATION    = 82.4779
RA_OF_ASC_NODE = 230.4161
ARG_OF_PERICENTER = 326.3921
MEAN_ANOMALY   = 33.7292

EPHEMERIS_TYPE = 0
CLASSIFICATION_TYPE = U
NORAD_CAT_ID   = 17295
ELEMENT_SET_NO = 999
REV_AT_EPOCH   = 13955
BSTAR          = .8010991E-3
MEAN_MOTION_DOT = .294644E-2
MEAN_MOTION_DDOT = .31944219E-4

CCSDS_OMM_VERS = 2.0
CREATION_DATE  = 
ORIGINATOR     = 

OBJECT_NAME    = SL-14 R/B
OBJECT_ID      = 1987-024B
CENTER_NAME    = EARTH
REF_FRAME      = TEME
TIME_SYSTEM    = UTC
MEAN_ELEMENT_THEORY = SGP/SGP4

EPOCH          = 2026-02-06T15:59:37.709088
MEAN_MOTION    = 14.86102256
ECCENTRICITY   = .00183684
INCLINATION    = 82.5294
RA_OF_ASC_NODE = 121.9207
ARG_OF_PERICENTER = 8.4394
MEAN_ANOMALY   = 351.7127

EPHEMERIS_TYPE = 0
CLASSIFICATION_TYPE = U
NORAD_CAT_ID   = 17567
ELEMENT_SET_NO = 999
REV_AT_EPOCH   = 8352
BSTAR          = .71296268E-4
MEAN_MOTION_DOT = .65E-5
MEAN_MOTION_DDOT = 0

CCSDS_OMM_VERS = 2.0
CREATION_DATE  = 
ORIGINATOR     = 

OBJECT_NAME    = COSMOS 1833
OBJECT_ID      = 1987-027A
CENTER_NAME    = EARTH
REF_FRAME      = TEME
TIME_SYSTEM    = UTC
MEAN_ELEMENT_THEORY = SGP/SGP4

EPOCH          = 2026-02-06T10:18:48.749760
MEAN_MOTION    = 14.13055988
ECCENTRICITY   = .00248686
INCLINATION    = 70.9210
RA_OF_ASC_NODE = 31.7158
ARG_OF_PERICENTER = 256.3065
MEAN_ANOMALY   = 103.5287

EPHEMERIS_TYPE = 0
CLASSIFICATION_TYPE = U
NORAD_CAT_ID   = 17589
ELEMENT_SET_NO = 999
REV_AT_EPOCH   = 590
BSTAR          = .64882435E-4
MEAN_MOTION_DOT = .73E-6
MEAN_MOTION_DDOT = 0

CCSDS_OMM_VERS = 2.0
CREATION_DATE  = 
ORIGINATOR     = 

OBJECT_NAME    = SL-16 R/B
OBJECT_ID      = 1987-027B
CENTER_NAME    = EARTH
REF_FRAME      = TEME
TIME_SYSTEM    = UTC
MEAN_ELEMENT_THEORY = SGP/SGP4

EPOCH          = 2026-02-06T23:42:44.216064
MEAN_MOTION    = 14.17163757
ECCENTRICITY   = .00051938
INCLINATION    = 71.0050
RA_OF_ASC_NODE = 341.1890
ARG_OF_PERICENTER = 195.7618
MEAN_ANOMALY   = 164.3345

EPHEMERIS_TYPE = 0
CLASSIFICATION_TYPE = U
NORAD_CAT_ID   = 17590
ELEMENT_SET_NO = 999
REV_AT_EPOCH   = 1099
BSTAR          = -.43911224E-4
MEAN_MOTION_DOT = -.136E-5
MEAN_MOTION_DDOT = 0

CCSDS_OMM_VERS = 2.0
CREATION_DATE  = 
ORIGINATOR     = 

OBJECT_NAME    = SL-14 R/B
OBJECT_ID      = 1987-038B
CENTER_NAME    = EARTH
REF_FRAME      = TEME
TIME_SYSTEM    = UTC
MEAN_ELEMENT_THEORY = SGP/SGP4

EPOCH          = 2026-02-06T20:20:22.633152
MEAN_MOTION    = 14.85338706
ECCENTRICITY   = .00176867
INCLINATION    = 82.5043
RA_OF_ASC_NODE = 325.8548
ARG_OF_PERICENTER = 266.6831
MEAN_ANOMALY   = 93.2362

EPHEMERIS_TYPE = 0
CLASSIFICATION_TYPE = U
NORAD_CAT_ID   = 17912
ELEMENT_SET_NO = 999
REV_AT_EPOCH   = 7465
BSTAR          = .85049233E-4
MEAN_MOTION_DOT = .757E-5
MEAN_MOTION_DDOT = 0

CCSDS_OMM_VERS = 2.0
CREATION_DATE  = 
ORIGINATOR     = 

OBJECT_NAME    = COSMOS 1844
OBJECT_ID      = 1987-041A
CENTER_NAME    = EARTH
REF_FRAME      = TEME
TIME_SYSTEM    = UTC
MEAN_ELEMENT_THEORY = SGP/SGP4

EPOCH          = 2026-02-06T15:20:43.913760
MEAN_MOTION    = 14.14538805
ECCENTRICITY   = .00288232
INCLINATION    = 70.8981
RA_OF_ASC_NODE = 99.6724
ARG_OF_PERICENTER = 67.8471
MEAN_ANOMALY   = 292.5705

EPHEMERIS_TYPE = 0
CLASSIFICATION_TYPE = U
NORAD_CAT_ID   = 17973
ELEMENT_SET_NO = 999
REV_AT_EPOCH   = 99919
BSTAR          = .21227372E-3
MEAN_MOTION_DOT = .361E-5
MEAN_MOTION_DDOT = 0

CCSDS_OMM_VERS = 2.0
CREATION_DATE  = 
ORIGINATOR     = 

OBJECT_NAME    = SL-14 R/B
OBJECT_ID      = 1987-055B
CENTER_NAME    = EARTH
REF_FRAME      = TEME
TIME_SYSTEM    = UTC
MEAN_ELEMENT_THEORY = SGP/SGP4

EPOCH          = 2026-02-06T23:08:52.193472
MEAN_MOTION    = 14.85591222
ECCENTRICITY   = .0022151
INCLINATION    = 82.4994
RA_OF_ASC_NODE = 17.9850
ARG_OF_PERICENTER = 113.3823
MEAN_ANOMALY   = 246.9726

EPHEMERIS_TYPE = 0
CLASSIFICATION_TYPE = U
NORAD_CAT_ID   = 18153
ELEMENT_SET_NO = 999
REV_AT_EPOCH   = 6537
BSTAR          = .83002788E-4
MEAN_MOTION_DOT = .745E-5
MEAN_MOTION_DDOT = 0

CCSDS_OMM_VERS = 2.0
CREATION_DATE  = 
ORIGINATOR     = 

OBJECT_NAME    = COSMOS 1867
OBJECT_ID      = 1987-060A
CENTER_NAME    = EARTH
REF_FRAME      = TEME
TIME_SYSTEM    = UTC
MEAN_ELEMENT_THEORY = SGP/SGP4

EPOCH          = 2026-02-06T00:05:03.486912
MEAN_MOTION    = 14.31497768
ECCENTRICITY   = .00140844
INCLINATION    = 65.0107
RA_OF_ASC_NODE = 35.4392
ARG_OF_PERICENTER = 276.2768
MEAN_ANOMALY   = 83.6712

EPHEMERIS_TYPE = 0
CLASSIFICATION_TYPE = U
NORAD_CAT_ID   = 18187
ELEMENT_SET_NO = 999
REV_AT_EPOCH   = 1540
BSTAR          = .30771277E-4
MEAN_MOTION_DOT = -.18E-6
MEAN_MOTION_DDOT = 0

CCSDS_OMM_VERS = 2.0
CREATION_DATE  = 
ORIGINATOR     = 

OBJECT_NAME    = SL-14 R/B
OBJECT_ID      = 1988-001B
CENTER_NAME    = EARTH
REF_FRAME      = TEME
TIME_SYSTEM    = UTC
MEAN_ELEMENT_THEORY = SGP/SGP4

EPOCH          = 2026-02-06T22:59:04.217280
MEAN_MOTION    = 14.85491161
ECCENTRICITY   = .00176379
INCLINATION    = 82.5105
RA_OF_ASC_NODE = 224.2664
ARG_OF_PERICENTER = 344.7932
MEAN_ANOMALY   = 15.2751

EPHEMERIS_TYPE = 0
CLASSIFICATION_TYPE = U
NORAD_CAT_ID   = 18749
ELEMENT_SET_NO = 999
REV_AT_EPOCH   = 3746
BSTAR          = .72629047E-4
MEAN_MOTION_DOT = .652E-5
MEAN_MOTION_DDOT = 0

